$$SOE
2459580.500000000, A.D. 2022-Jan-01 00:00:00.0000, -4.336147666771246E+08, -1.747140604438812E+07, -1.070674829971883E+08,
2459587.500000000, A.D. 2022-Jan-08 00:00:00.0000, -4.325497280500616E+08, -2.806236378478370E+07, -1.058703788713312E+08,
2459594.500000000, A.D. 2022-Jan-15 00:00:00.0000, -4.312483799868843E+08, -3.863797600088838E+07, -1.046154213781090E+08,
2459601.500000000, A.D. 2022-Jan-22 00:00:00.0000, -4.297102120064816E+08, -4.919235591187306E+07, -1.033030013097023E+08,
2459608.500000000, A.D. 2022-Jan-29 00:00:00.0000, -4.279348634513097E+08, -5.971956768667791E+07, -1.019335511173049E+08,
2459615.500000000, A.D. 2022-Feb-05 00:00:00.0000, -4.259221288604020E+08, -7.021363165399635E+07, -1.005075451582957E+08,
2459622.500000000, A.D. 2022-Feb-12 00:00:00.0000, -4.236719610412073E+08, -8.066853077786878E+07, -9.902550018024305E+07,
2459629.500000000, A.D. 2022-Feb-19 00:00:00.0000, -4.211844731522481E+08, -9.107821602470547E+07, -9.748797572339471E+07,
2459636.500000000, A.D. 2022-Feb-26 00:00:00.0000, -4.184599410944324E+08, -1.014366113399099E+08, -9.589557437716776E+07,
2459643.500000000, A.D. 2022-Mar-05 00:00:00.0000, -4.154988060390504E+08, -1.117376188456159E+08, -9.424894195296556E+07,
2459650.500000000, A.D. 2022-Mar-12 00:00:00.0000, -4.123016768578932E+08, -1.219751243186083E+08, -9.254876759631929E+07,
2459657.500000000, A.D. 2022-Mar-19 00:00:00.0000, -4.088693323711891E+08, -1.321430029132462E+08, -9.079578383976531E+07,
2459664.500000000, A.D. 2022-Mar-26 00:00:00.0000, -4.052027233781738E+08, -1.422351251282120E+08, -8.899076659672976E+07,
2459671.500000000, A.D. 2022-Apr-02 00:00:00.0000, -4.013029743911394E+08, -1.522453630651482E+08, -8.713453510579437E+07,
2459678.500000000, A.D. 2022-Apr-09 00:00:00.0000, -3.971713847907979E+08, -1.621675969649422E+08, -8.522795184891510E+07,
2459685.500000000, A.D. 2022-Apr-16 00:00:00.0000, -3.928094290358797E+08, -1.719957213562413E+08, -8.327192242165847E+07,
2459692.500000000, A.D. 2022-Apr-23 00:00:00.0000, -3.882187571850623E+08, -1.817236497193812E+08, -8.126739514869566E+07,
2459699.500000000, A.D. 2022-Apr-30 00:00:00.0000, -3.834011975905647E+08, -1.913453198987208E+08, -7.921536045489094E+07,
2459706.500000000, A.D. 2022-May-07 00:00:00.0000, -3.783587586919544E+08, -2.008547022249016E+08, -7.711685043344873E+07,
2459713.500000000, A.D. 2022-May-14 00:00:00.0000, -3.730936285131441E+08, -2.102458072949903E+08, -7.497293848957728E+07,
2459720.500000000, A.D. 2022-May-21 00:00:00.0000, -3.676081738851907E+08, -2.195126926364198E+08, -7.278473881024654E+07,
2459727.500000000, A.D. 2022-May-28 00:00:00.0000, -3.619049398655063E+08, -2.286494691982229E+08, -7.055340569375758E+07,
2459734.500000000, A.D. 2022-Jun-04 00:00:00.0000, -3.559866490699635E+08, -2.376503079672344E+08, -6.828013279022121E+07,
2459741.500000000, A.D. 2022-Jun-11 00:00:00.0000, -3.498562007687159E+08, -2.465094466910981E+08, -6.596615226661226E+07,
2459748.500000000, A.D. 2022-Jun-18 00:00:00.0000, -3.435166697035659E+08, -2.552211966775900E+08, -6.361273389943421E+07,
2459755.500000000, A.D. 2022-Jun-25 00:00:00.0000, -3.369713045944951E+08, -2.637799496853997E+08, -6.122118410094529E+07,
2459762.500000000, A.D. 2022-Jul-02 00:00:00.0000, -3.302235261990427E+08, -2.721801849537371E+08, -5.879284489731149E+07,
2459769.500000000, A.D. 2022-Jul-09 00:00:00.0000, -3.232769245329581E+08, -2.804164761752115E+08, -5.632909288098724E+07,
2459776.500000000, A.D. 2022-Jul-16 00:00:00.0000, -3.161352553069155E+08, -2.884834973102558E+08, -5.383133804496856E+07,
2459783.500000000, A.D. 2022-Jul-23 00:00:00.0000, -3.088024377778301E+08, -2.963760271463267E+08, -5.130102229236892E+07,
2459790.500000000, A.D. 2022-Jul-30 00:00:00.0000, -3.012825539322081E+08, -3.040889559379216E+08, -4.873961790522110E+07,
2459797.500000000, A.D. 2022-Aug-06 00:00:00.0000, -2.935798454072230E+08, -3.116172934623805E+08, -4.614862625237466E+07,
2459804.500000000, A.D. 2022-Aug-13 00:00:00.0000, -2.856987089787378E+08, -3.189561757189897E+08, -4.352957643850021E+07,
2459811.500000000, A.D. 2022-Aug-20 00:00:00.0000, -2.776436921916083E+08, -3.261008707557862E+08, -4.088402379387084E+07,
2459818.500000000, A.D. 2022-Aug-27 00:00:00.0000, -2.694194890703970E+08, -3.330467843321561E+08, -3.821354827337539E+07,
2459825.500000000, A.D. 2022-Sep-03 00:00:00.0000, -2.610309356699903E+08, -3.397894655106797E+08, -3.551975279998520E+07,
2459832.500000000, A.D. 2022-Sep-10 00:00:00.0000, -2.524830053852982E+08, -3.463246121385334E+08, -3.280426156295870E+07,
2459839.500000000, A.D. 2022-Sep-17 00:00:00.0000, -2.437808040016993E+08, -3.526480762050245E+08, -3.006871827785443E+07,
2459846.500000000, A.D. 2022-Sep-24 00:00:00.0000, -2.349295644380057E+08, -3.587558691113249E+08, -2.731478442240439E+07,
2459853.500000000, A.D. 2022-Oct-01 00:00:00.0000, -2.259346409549721E+08, -3.646441668605191E+08, -2.454413747661690E+07,
2459860.500000000, A.D. 2022-Oct-08 00:00:00.0000, -2.168015024359024E+08, -3.703093146325911E+08, -2.175846916654666E+07,
2459867.500000000, A.D. 2022-Oct-15 00:00:00.0000, -2.075357256857560E+08, -3.757478295325012E+08, -1.895948353316359E+07,
2459874.500000000, A.D. 2022-Oct-22 00:00:00.0000, -1.981429909451792E+08, -3.809564031834384E+08, -1.614889476892987E+07,
2459881.500000000, A.D. 2022-Oct-29 00:00:00.0000, -1.886290771375722E+08, -3.859319067493976E+08, -1.332842526851684E+07,
2459888.500000000, A.D. 2022-Nov-05 00:00:00.0000, -1.789998547681643E+08, -3.906713956383145E+08, -1.049980386747274E+07,
2459895.500000000, A.D. 2022-Nov-12 00:00:00.0000, -1.692612784591494E+08, -3.951721126099232E+08, -7.664763989911228E+06,
2459902.500000000, A.D. 2022-Nov-19 00:00:00.0000, -1.594193798586954E+08, -3.994314902327812E+08, -4.825041721939921E+06,
2459909.500000000, A.D. 2022-Nov-26 00:00:00.0000, -1.494802606785432E+08, -4.034471530786228E+08, -1.982373872341543E+06,
2459916.500000000, A.D. 2022-Dec-03 00:00:00.0000, -1.394500857097596E+08, -4.072169196591232E+08, 8.615039578530490E+05,
2459923.500000000, A.D. 2022-Dec-10 00:00:00.0000, -1.293350757869756E+08, -4.107388040843198E+08, 3.704859288520575E+06,
2459930.500000000, A.D. 2022-Dec-17 00:00:00.0000, -1.191415006943272E+08, -4.140110174693760E+08, 6.545964646551460E+06,
2459937.500000000, A.D. 2022-Dec-24 00:00:00.0000, -1.088756719238229E+08, -4.170319691585975E+08, 9.383099404647052E+06,
2459944.500000000, A.D. 2022-Dec-31 00:00:00.0000, -9.854393494939137E+07, -4.198002676619965E+08, 1.221455154449421E+07,
2459951.500000000, A.D. 2023-Jan-07 00:00:00.0000, -8.815266091428331E+07, -4.223147203443447E+08, 1.503861940771908E+07,
2459958.500000000, A.D. 2023-Jan-14 00:00:00.0000, -7.770823971800575E+07, -4.245743313718327E+08, 1.785361365169817E+07,
2459965.500000000, A.D. 2023-Jan-21 00:00:00.0000, -6.721707516487038E+07, -4.265783010915400E+08, 2.065785920603555E+07,
2459972.500000000, A.D. 2023-Jan-28 00:00:00.0000, -5.668557852257121E+07, -4.283260270447726E+08, 2.344969687338501E+07,
2459979.500000000, A.D. 2023-Feb-04 00:00:00.0000, -4.612016071608988E+07, -4.298171035943632E+08, 2.622748483773652E+07,
2459986.500000000, A.D. 2023-Feb-11 00:00:00.0000, -3.552722496874684E+07, -4.310513203675690E+08, 2.898960022587939E+07,
2459993.500000000, A.D. 2023-Feb-18 00:00:00.0000, -2.491315996943233E+07, -4.320286603460783E+08, 3.173444065761262E+07,
2460000.500000000, A.D. 2023-Feb-25 00:00:00.0000, -1.428433331813300E+07, -4.327492977738440E+08, 3.446042574459030E+07,
2460007.500000000, A.D. 2023-Mar-04 00:00:00.0000, -3.647085161380360E+06, -4.332135958735403E+08, 3.716599852732188E+07,
2460014.500000000, A.D. 2023-Mar-11 00:00:00.0000, 6.992277998442420E+06, -4.334221043818317E+08, 3.984962684536588E+07,
2460021.500000000, A.D. 2023-Mar-18 00:00:00.0000, 1.762748935537697E+07, -4.333755569650732E+08, 4.250980463044132E+07,
2460028.500000000, A.D. 2023-Mar-25 00:00:00.0000, 2.825232790592498E+07, -4.330748685758979E+08, 4.514505309855546E+07,
2460035.500000000, A.D. 2023-Apr-01 00:00:00.0000, 3.886062502269919E+07, -4.325211323710079E+08, 4.775392183332601E+07,
2460042.500000000, A.D. 2023-Apr-08 00:00:00.0000, 4.944627087027235E+07, -4.317156149788217E+08, 5.033498991619182E+07,
2460049.500000000, A.D. 2023-Apr-15 00:00:00.0000, 6.000321831720039E+07, -4.306597512360063E+08, 5.288686722652519E+07,
2460056.500000000, A.D. 2023-Apr-22 00:00:00.0000, 7.052548614629374E+07, -4.293551414576620E+08, 5.540819549531946E+07,
2460063.500000000, A.D. 2023-Apr-29 00:00:00.0000, 8.100716429254560E+07, -4.278035490030614E+08, 5.789764904530144E+07,
2460070.500000000, A.D. 2023-May-06 00:00:00.0000, 9.144241934313542E+07, -4.260068963714600E+08, 6.035393552460568E+07,
2460077.500000000, A.D. 2023-May-13 00:00:00.0000, 1.018254993179132E+08, -4.239672607365761E+08, 6.277579665079919E+07,
2460084.500000000, A.D. 2023-May-20 00:00:00.0000, 1.121507379606589E+08, -4.216868694254894E+08, 6.516200890392984E+07,
2460091.500000000, A.D. 2023-May-27 00:00:00.0000, 1.224125587316491E+08, -4.191680953858615E+08, 6.751138414884032E+07,
2460098.500000000, A.D. 2023-Jun-03 00:00:00.0000, 1.326054785570832E+08, -4.164134526296049E+08, 6.982277018403782E+07,
2460105.500000000, A.D. 2023-Jun-10 00:00:00.0000, 1.427241113583097E+08, -4.134255916805640E+08, 7.209505121437892E+07,
2460112.500000000, A.D. 2023-Jun-17 00:00:00.0000, 1.527631714503445E+08, -4.102072951002557E+08, 7.432714823544557E+07,
2460119.500000000, A.D. 2023-Jun-24 00:00:00.0000, 1.627174771309387E+08, -4.067614730504938E+08, 7.651801930634499E+07,
2460126.500000000, A.D. 2023-Jul-01 00:00:00.0000, 1.725819547147315E+08, -4.030911580794083E+08, 7.866665975735815E+07,
2460133.500000000, A.D. 2023-Jul-08 00:00:00.0000, 1.823516413395872E+08, -3.991994983225564E+08, 8.077210255505870E+07,
2460140.500000000, A.D. 2023-Jul-15 00:00:00.0000, 1.920216852694736E+08, -3.950897519605612E+08, 8.283341871205859E+07,
$$EOE